ONEWEB-0176             
1 48210U 21031A   24202.92961160  .00000176  00000+0  43902-3 0  9990
2 48210  87.8940  68.2065 0001728  80.1358 279.9967 13.14502796156844
ONEWEB-0184             
1 48211U 21031B   24202.90264735 -.00000020  00000+0 -87544-4 0  9994
2 48211  87.8932  68.1941 0001341  44.9312 315.1926 13.14503487156810
ONEWEB-0179             
1 48212U 21031C   24203.17698684  .00000005  00000+0 -20923-4 0  9999
2 48212  87.8939  68.1436 0001674  83.7780 276.3540 13.14504080156894
ONEWEB-0180             
1 48213U 21031D   24202.90582935  .00000051  00000+0  10175-3 0  9998
2 48213  87.8935  68.1948 0001618  86.3727 273.7588 13.14500696156743
ONEWEB-0218             
1 48214U 21031E   24202.92801786  .00000259  00000+0  66543-3 0  9999
2 48214  87.8937  68.1922 0000952  45.4211 314.6996 13.14504345156903
ONEWEB-0209             
1 48215U 21031F   24202.91691706  .00000196  00000+0  49351-3 0  9996
2 48215  87.8936  68.2290 0001643  86.8670 273.2648 13.14504775156909
ONEWEB-0198             
1 48216U 21031G   24202.90105781 -.00000278  00000+0 -78352-3 0  9995
2 48216  87.8936  68.2368 0001354  78.8205 281.3077 13.14502021156997
ONEWEB-0189             
1 48217U 21031H   24202.91375299  .00000188  00000+0  47205-3 0  9991
2 48217  87.8936  68.2096 0001271  81.1699 278.9575 13.14503082156755
